{
    "links": {
        "self": "http://www.neowsapp.com/rest/v1/neo/3647022?api_key=iIulBulltgU6a56xZRHN4H3l9WmuAYTsLGpBGhQ2"
    },
    "id": "3647022",
    "neo_reference_id": "3647022",
    "name": "(2013 QO48)",
    "designation": "2013 QO48",
    "nasa_jpl_url": "http://ssd.jpl.nasa.gov/sbdb.cgi?sstr=3647022",
    "absolute_magnitude_h": 26.5,
    "estimated_diameter": {
        "kilometers": {
            "estimated_diameter_min": 0.0133215567,
            "estimated_diameter_max": 0.0297879063
        },
        "meters": {
            "estimated_diameter_min": 13.3215566698,
            "estimated_diameter_max": 29.7879062798
        },
        "miles": {
            "estimated_diameter_min": 0.008277629,
            "estimated_diameter_max": 0.0185093411
        },
        "feet": {
            "estimated_diameter_min": 43.7058959846,
            "estimated_diameter_max": 97.7293544391
        }
    },
    "is_potentially_hazardous_asteroid": false,
    "close_approach_data": [
        {
            "close_approach_date": "1961-05-04",
            "close_approach_date_full": "1961-May-04 21:44",
            "epoch_date_close_approach": -273291360000,
            "relative_velocity": {
                "kilometers_per_second": "18.4512879947",
                "kilometers_per_hour": "66424.6367810852",
                "miles_per_hour": "41273.6861154471"
            },
            "miss_distance": {
                "astronomical": "0.3481573072",
                "lunar": "135.4331925008",
                "kilometers": "52083591.582055664",
                "miles": "32363243.1055656032"
            },
            "orbiting_body": "Earth"
        },
        {
            "close_approach_date": "1963-09-21",
            "close_approach_date_full": "1963-Sep-21 09:15",
            "epoch_date_close_approach": -198168300000,
            "relative_velocity": {
                "kilometers_per_second": "21.8305173444",
                "kilometers_per_hour": "78589.8624399754",
                "miles_per_hour": "48832.6842477725"
            },
            "miss_distance": {
                "astronomical": "0.4482115275",
                "lunar": "174.3542841975",
                "kilometers": "67051489.823446425",
                "miles": "41663863.797253665"
            },
            "orbiting_body": "Earth"
        },
        {
            "close_approach_date": "2013-08-22",
            "close_approach_date_full": "2013-Aug-22 10:25",
            "epoch_date_close_approach": 1377167100000,
            "relative_velocity": {
                "kilometers_per_second": "9.3630903653",
                "kilometers_per_hour": "33707.1253149824",
                "miles_per_hour": "20944.2968380789"
            },
            "miss_distance": {
                "astronomical": "0.0265188725",
                "lunar": "10.3158414025",
                "kilometers": "3967166.840801575",
                "miles": "2465083.167448735"
            },
            "orbiting_body": "Earth"
        }
    ],
    "orbital_data": {
        "orbit_id": "4",
        "orbit_determination_date": "2017-04-06 08:44:58",
        "first_observation_date": "2013-08-31",
        "last_observation_date": "2013-09-03",
        "data_arc_in_days": 3,
        "observations_used": 15,
        "orbit_uncertainty": "8",
        "minimum_orbit_intersection": ".0188093",
        "jupiter_tisserand_invariant": "4.122",
        "epoch_osculation": "2456536.5",
        "eccentricity": ".4296048742710131",
        "semi_major_axis": "1.678489875930337",
        "inclination": "4.975505830490796",
        "ascending_node_longitude": "157.7723301932953",
        "orbital_period": "794.2852834295036",
        "perihelion_distance": ".9574024438161162",
        "perihelion_argument": "131.5885657983566",
        "aphelion_distance": "2.399577308044558",
        "perihelion_time": "2456494.463013636664",
        "mean_anomaly": "19.05274516161183",
        "mean_motion": ".4532376559283836",
        "equinox": "J2000",
        "orbit_class": {
            "orbit_class_type": "APO",
            "orbit_class_description": "Near-Earth asteroid orbits which cross the Earth’s orbit similar to that of 1862 Apollo",
            "orbit_class_range": "a (semi-major axis) > 1.0 AU; q (perihelion) < 1.017 AU"
        }
    },
    "is_sentry_object": false
}